satname,norad_id,inclination_deg,eccentricity,mean_motion_rev_per_day,perigee_km,apogee_km,l1,l2
STARLINK-1008,44714,53.157,0.0001347,15.31029148,471.81768709669905,473.6633134952799,1 44714U 19074B   26043.96570602  .00000052  00000+0  13640-4 0  9995,2 44714  53.1570 293.7454 0001347 121.1728 238.9405 15.31029148345089
STARLINK-1012,44718,53.1585,0.000131,15.30222975,474.2486909341851,476.0442512036061,1 44718U 19074F   26044.06316658  .00007140  00000+0  25279-3 0  9995,2 44718  53.1585 293.1952 0001310  84.8934 275.2216 15.30222975345097
STARLINK-1017,44723,53.0488,0.000363,15.21970968,497.3993898591316,502.39284190126,1 44723U 19074L   26044.06480012  .00014550  00000+0  64268-3 0  9991,2 44723  53.0488 284.8644 0003630 105.8424 254.2972 15.21970968345216
STARLINK-1019,44724,53.0454,0.0009583,15.74090337,340.7760691098938,353.6658902137133,1 44724U 19074M   26044.58334490  .00127747  00000+0  86485-3 0  9995,2 44724  53.0454 257.3155 0009583 116.7823  99.7399 15.74090337  6006
STARLINK-1020,44725,53.0684,0.0001351,15.1062859,533.3479119313124,535.215647485591,1 44725U 19074N   26044.58334490  .00080471  00000+0  47764-2 0  9994,2 44725  53.0684 314.8017 0001351 116.3135 169.4399 15.10628590  5827
STARLINK-1031,44736,53.0473,0.0004627,15.8039975,326.205796486669,332.41286732221306,1 44736U 19074Z   26044.58334490  .00238818  00000+0  12056-2 0  9992,2 44736  53.0473 242.0229 0004627 152.4457 341.4062 15.80399750  6010
STARLINK-1036,44741,53.0552,0.000613,15.50764779,410.328023036559,418.6557860735438,1 44741U 19074AE  26043.96783662  .00052537  00000+0  89835-3 0  9990,2 44741  53.0552 307.7329 0006130 123.8218 236.3374 15.50764779344884
STARLINK-1039,44744,53.0485,0.000708,15.1946955,502.56767079950896,512.3176515997675,1 44744U 19074AH  26044.16297792  .00025180  00000+0  11827-2 0  9999,2 44744  53.0485 327.6354 0007080 103.8368 256.3415 15.19469550344624
STARLINK-1042,44747,53.0434,0.0003168,15.48524263,418.88838743585893,423.1963474830818,1 44747U 19074AL  26044.46038389  .00024092  00000+0  45203-3 0  9997,2 44747  53.0434 210.9237 0003168 106.7186 253.4169 15.48524263346315
STARLINK-1043,44748,53.0541,0.0002944,15.52052523,408.7354940958603,412.7327814217724,1 44748U 19074AM  26044.13552662  .00030306  00000+0  49981-3 0  9999,2 44748  53.0541 312.8110 0002944  66.7837 293.3482 15.52052523344832
STARLINK-1046,44751,53.056,0.0007696,15.41812673,435.51170903054026,446.007354572288,1 44751U 19074AQ  26044.05506963  .00017573  00000+0  41679-3 0  9994,2 44751  53.0560 327.7329 0007696  99.2615 260.9260 15.41812673344616
STARLINK-1047,44752,53.0691,0.0004706,15.31979889,466.68309877331194,473.12847664510446,1 44752U 19074AR  26043.84078653  .00008246  00000+0  27480-3 0  9992,2 44752  53.0691 262.0347 0004706 125.7706 234.3732 15.31979889345531
STARLINK-1048,44753,53.055,0.0005435,15.50135081,412.6385271922745,420.02411425690207,1 44753U 19074AS  26044.10376932  .00024203  00000+0  42906-3 0  9995,2 44753  53.0550 287.0357 0005435 110.2412 249.9181 15.50135081345187
STARLINK-1053,44758,53.0301,0.000163,15.81436154,325.2856646372211,327.47133669043706,1 44758U 19074AX  26044.58334490  .00141250  00000+0  68928-3 0  9999,2 44758  53.0301 205.5473 0001630 295.5501 285.2797 15.81436154  6021
STARLINK-1060,44765,53.0236,0.0005208,16.37181335,169.89930534548876,176.72329389437346,1 44765U 19074BE  26045.02190104  .06089487  12309-4  61664-3 0  9998,2 44765  53.0236 239.0557 0005208 291.4119 206.5084 16.37181335345926
STARLINK-1063,44768,53.161,9.91e-05,15.29090279,477.85100428955957,479.2099957880664,1 44768U 19074BH  26044.25922256 -.00508344  00000+0 -18993-1 0  9995,2 44768  53.1610 332.8724 0000991 167.3508 192.7518 15.29090279344575
STARLINK-1067,44771,53.055,0.0001523,15.52285564,409.02081427362555,411.0884974520013,1 44771U 19074BL  26044.39595254  .00031174  00000+0  50964-3 0  9994,2 44771  53.0550 321.5729 0001523 100.3368 259.7813 15.52285564344733
STARLINK-1068,44772,53.0526,0.0005833,15.58024662,389.4247147193,397.32436007882825,1 44772U 19074BM  26044.28774501  .00127591  00000+0  16497-2 0  9998,2 44772  53.0526 298.8616 0005833 124.0371 236.1195 15.58024662345035
STARLINK-1112,44925,53.0406,0.0003147,15.90810494,297.91200416831816,302.1152321673917,1 44925U 20001M   26044.58334490  .00286516  41509-4  90646-3 0  9998,2 44925  53.0406   5.4638 0003147  82.0780  48.5623 15.90810494  6038
STARLINK-1114,44927,53.0514,0.0007705,15.46048295,423.0552459301007,433.5439647389221,1 44927U 20001P   26044.46853627  .00064546  00000+0  12965-2 0  9995,2 44927  53.0514  85.2432 0007705  23.5485 336.5873 15.46048295336344
STARLINK-1123,44930,53.0546,0.000139,15.06389496,546.2811234480514,548.2063792969329,1 44930U 20001S   26044.37405595  .00001971  00000+0  15123-3 0  9999,2 44930  53.0546  95.7788 0001390 104.7858 255.3285 15.06389496336187
STARLINK-1144,44933,53.0208,0.0006096,16.40780614,159.7388684087091,167.71470873973885,1 44933U 20001V   26045.00161950  .08223869  12314-4  54058-3 0  9993,2 44933  53.0208 330.6589 0006096 226.2259 133.8284 16.40780614339287
STARLINK-1094,44941,53.1602,0.0001318,15.30198297,474.3168818021395,476.12342674800584,1 44941U 20001AD  26044.45168706  .00001300  00000+0  56013-4 0  9990,2 44941  53.1602  72.1443 0001318  96.4516 263.6635 15.30198297336521
STARLINK-1122,44949,53.1595,0.0001615,15.30191018,474.13506749305,476.348708873933,1 44949U 20001AM  26044.58334490  .00038447  00000+0  13039-2 0  9998,2 44949  53.1595  71.5814 0001615  58.0557 162.4222 15.30191018  5822
STARLINK-1080,44961,53.0534,0.0008123,15.43417863,430.4956907762735,441.5659878480201,1 44961U 20001AZ  26044.22970927  .00019025  00000+0  42684-3 0  9994,2 44961  53.0534  44.6876 0008123  29.5534 330.5929 15.43417863336895
STARLINK-1090,44968,53.0547,0.0001495,15.0639592,546.1887211000167,548.2594040577287,1 44968U 20001BG  26044.34457606  .00000824  00000+0  74215-4 0  9991,2 44968  53.0547  55.9085 0001495  95.6750 264.4410 15.06395920336744
STARLINK-1132,45044,53.1593,0.0005552,15.4028685,441.4736805800312,449.05038286485615,1 45044U 20006A   26044.28802980  .00049846  00000+0  12205-2 0  9990,2 45044  53.1593   9.3602 0005552  95.4300 264.7338 15.40286850333161
STARLINK-1131,45047,53.1563,0.0001415,15.29375927,476.7066099915928,478.6468052708524,1 45047U 20006D   26044.43279600  .00010464  00000+0  37420-3 0  9998,2 45047  53.1563  33.6380 0001415  85.6040 274.5122 15.29375927332834
STARLINK-1134,45048,53.0358,0.0009823,15.41261246,435.6860623568391,449.0856615714529,1 45048U 20006E   26044.58334490  .00074745  00000+0  17595-2 0  9996,2 45048  53.0358 352.7065 0009823  96.0269 247.2792 15.41261246  5874
STARLINK-1156,45054,53.1559,0.0001455,15.29378648,476.6710562190092,478.66609564160444,1 45054U 20006L   26044.45594262  .00007180  00000+0  26073-3 0  9995,2 45054  53.1559  33.5109 0001455  96.0929 264.0237 15.29378648332835
STARLINK-1159,45057,53.0488,0.0006087,15.74552121,341.8130502676677,349.9989001857084,1 45057U 20006P   26044.58334490  .00233659  00000+0  15304-2 0  9993,2 45057  53.0488 355.4425 0006087  61.9631  21.7337 15.74552121  5951
STARLINK-1166,45060,53.0544,0.0005928,15.42556805,434.5254488998262,442.60733243980303,1 45060U 20006S   26044.42916185  .00066551  00000+0  15046-2 0  9995,2 45060  53.0544  28.0046 0005928  60.2709 299.8885 15.42556805332914
STARLINK-1169,45061,53.1568,0.000159,15.293573,476.6422917857135,478.8224582469693,1 45061U 20006T   26044.23054713  .00000139  00000+0  17155-4 0  9990,2 45061  53.1568  34.5915 0001590  87.7608 272.3574 15.29357300332805
STARLINK-1171,45062,53.0486,0.0002966,15.52740809,406.7147959555823,410.7407641431073,1 45062U 20006U   26044.35837831  .00111152  00000+0  17506-2 0  9990,2 45062  53.0486   7.1743 0002966 316.6639  43.4137 15.52740809333208
STARLINK-1133,45064,53.1599,0.0001271,15.30200769,474.3417125687092,476.08383408108875,1 45064U 20006W   26044.10708812 -.00001985  00000+0 -54901-4 0  9997,2 45064  53.1599  11.9868 0001271  65.1910 294.9223 15.30200769333114
STARLINK-1167,45071,53.1593,0.0001194,15.29380982,476.84301844408947,478.480183149959,1 45071U 20006AD  26044.31760701  .00011714  00000+0  41730-3 0  9997,2 45071  53.1593  10.9140 0001194  88.2884 271.8253 15.29380982333142
STARLINK-1168,45072,53.161,0.0001257,15.29364584,476.8488263707568,478.57238645900816,1 45072U 20006AE  26044.26207211 -.00004208  00000+0 -13352-3 0  9995,2 45072  53.1610  11.2324 0001257  86.3129 273.8015 15.29364584333139
STARLINK-1172,45074,53.1602,0.0002147,15.30215027,473.69879681689326,476.6416069293773,1 45074U 20006AG  26044.41048221  .00006147  00000+0  21939-3 0  9990,2 45074  53.1602  10.5972 0002147  84.4621 275.6625 15.30215027333156
STARLINK-1153,45080,53.1612,0.0001385,15.29373468,476.73452515030385,478.63358758291815,1 45080U 20006AN  26044.30201291  .00002523  00000+0  99684-4 0  9990,2 45080  53.1612  10.9036 0001385  93.0639 267.0520 15.29373468333147
STARLINK-1151,45081,53.0532,0.0012686,15.54827997,394.0505571838776,411.2547767268761,1 45081U 20006AP  26044.27665947  .00136398  00000+0  19777-2 0  9990,2 45081  53.0532 358.5402 0012686  65.2320 295.0009 15.54827997333311
STARLINK-1185,45087,53.1209,8.67e-05,15.22070249,499.0007213283925,500.1933204076113,1 45087U 20006AV  26044.58334490  .00072921  00000+0  31299-2 0  9990,2 45087  53.1209 354.0866 0000867  96.2005 263.1022 15.22070249  5576
STARLINK-1183,45088,53.116,0.0002173,15.206718,502.3175548151321,505.30845028624117,1 45088U 20006AW  26044.58334490  .00987866  00000+0  40860-1 0  9997,2 45088  53.1160 354.2975 0002173  81.4908  42.1274 15.20671800  5837
STARLINK-1152,45096,53.0425,0.0007564,15.3533419,454.7557262361852,465.1003510266264,1 45096U 20006BE  26044.21059046  .00078013  00000+0  22271-2 0  9999,2 45096  53.0425 321.6561 0007564 105.4467 254.7371 15.35334190333820
